ORBCOMM FM103           
1 40091U 14040F   25322.54721870  .00000993  00000+0  24828-3 0  9998
2 40091  47.0066   8.6765 0002668 267.7483  92.3097 14.58474728586638
ORBCOMM FM114           
1 41179U 15081A   25322.83858370  .00000961  00000+0  24117-3 0  9996
2 41179  47.0033 276.2667 0002661 323.2743  36.7960 14.58511494527047
ORBCOMM FM119           
1 41180U 15081B   25322.62801667  .00000800  00000+0  20711-3 0  9990
2 41180  46.9989 186.6157 0000919  10.9117 349.1789 14.58442557528262
ORBCOMM FM105           
1 41181U 15081C   25321.69239017  .00000507  00000+0  18748-3 0  9992
2 41181  47.0007 210.9648 0002270 289.5783  70.4852 14.45374576522953
ORBCOMM FM110           
1 41182U 15081D   25321.93875462  .00001281  00000+0  30904-3 0  9998
2 41182  47.0011 280.0332 0002250 209.0012 151.0749 14.58565908526788
ORBCOMM FM118           
1 41183U 15081E   25322.86319186  .00001116  00000+0  27431-3 0  9996
2 41183  47.0033 275.9512 0002025 156.3162 203.7818 14.58518034527024
ORBCOMM FM112           
1 41184U 15081F   25322.59255950  .00000918  00000+0  23159-3 0  9997
2 41184  46.9966 185.7859 0001598 321.3578  38.7193 14.58589782528200
ORBCOMM FM113           
1 41185U 15081G   25322.63828247  .00000956  00000+0  23985-3 0  9997
2 41185  46.9982 185.9215 0001313 332.6986  27.3830 14.58579318528194
